{
    "links": {
        "self": "http://www.neowsapp.com/rest/v1/neo/3589719?api_key=iIulBulltgU6a56xZRHN4H3l9WmuAYTsLGpBGhQ2"
    },
    "id": "3589719",
    "neo_reference_id": "3589719",
    "name": "(2011 WB96)",
    "designation": "2011 WB96",
    "nasa_jpl_url": "http://ssd.jpl.nasa.gov/sbdb.cgi?sstr=3589719",
    "absolute_magnitude_h": 23.4,
    "estimated_diameter": {
        "kilometers": {
            "estimated_diameter_min": 0.0555334912,
            "estimated_diameter_max": 0.1241766613
        },
        "meters": {
            "estimated_diameter_min": 55.5334911581,
            "estimated_diameter_max": 124.1766612574
        },
        "miles": {
            "estimated_diameter_min": 0.0345069009,
            "estimated_diameter_max": 0.0771597762
        },
        "feet": {
            "estimated_diameter_min": 182.1964991311,
            "estimated_diameter_max": 407.4037573197
        }
    },
    "is_potentially_hazardous_asteroid": false,
    "close_approach_data": [
        {
            "close_approach_date": "2011-11-29",
            "close_approach_date_full": "2011-Nov-29 10:01",
            "epoch_date_close_approach": 1322560860000,
            "relative_velocity": {
                "kilometers_per_second": "9.3035976508",
                "kilometers_per_hour": "33492.9515430036",
                "miles_per_hour": "20811.2175851513"
            },
            "miss_distance": {
                "astronomical": "0.1334581395",
                "lunar": "51.9152162655",
                "kilometers": "19965053.403362865",
                "miles": "12405708.924482937"
            },
            "orbiting_body": "Earth"
        }
    ],
    "orbital_data": {
        "orbit_id": "4",
        "orbit_determination_date": "2017-04-06 08:51:48",
        "first_observation_date": "2011-11-30",
        "last_observation_date": "2011-12-01",
        "data_arc_in_days": 1,
        "observations_used": 10,
        "orbit_uncertainty": "9",
        "minimum_orbit_intersection": ".0674736",
        "jupiter_tisserand_invariant": "4.774",
        "epoch_osculation": "2455896.5",
        "eccentricity": ".2364889466656988",
        "semi_major_axis": "1.361070081335937",
        "inclination": "16.82921376972368",
        "ascending_node_longitude": "73.41522289544815",
        "orbital_period": "579.9882004918479",
        "perihelion_distance": "1.039192051462604",
        "perihelion_argument": "336.8095174203063",
        "aphelion_distance": "1.682948111209269",
        "perihelion_time": "2455872.601467034009",
        "mean_anomaly": "14.83387396581646",
        "mean_motion": ".6207022827269743",
        "equinox": "J2000",
        "orbit_class": {
            "orbit_class_type": "AMO",
            "orbit_class_description": "Near-Earth asteroid orbits similar to that of 1221 Amor",
            "orbit_class_range": "1.017 AU < q (perihelion) < 1.3 AU"
        }
    },
    "is_sentry_object": false
}